[{"OBJECT_NAME":"TOMORROW-S2","OBJECT_ID":"2024-149T","EPOCH":"2026-03-09T18:02:42.746496","MEAN_MOTION":15.30674935,"ECCENTRICITY":0.0001648,"INCLINATION":97.3857,"RA_OF_ASC_NODE":150.0385,"ARG_OF_PERICENTER":234.3331,"MEAN_ANOMALY":125.7757,"EPHEMERIS_TYPE":0,"CLASSIFICATION_TYPE":"U","NORAD_CAT_ID":60485,"ELEMENT_SET_NO":999,"REV_AT_EPOCH":8686,"BSTAR":0.00027683033,"MEAN_MOTION_DOT":8.133e-5,"MEAN_MOTION_DDOT":0},{"OBJECT_NAME":"STARLINK-35121","OBJECT_ID":"2025-216D","EPOCH":"2026-03-09T23:19:18.795648","MEAN_MOTION":15.30211221,"ECCENTRICITY":0.00011956,"INCLINATION":53.1603,"RA_OF_ASC_NODE":331.8053,"ARG_OF_PERICENTER":132.8659,"MEAN_ANOMALY":227.2443,"EPHEMERIS_TYPE":0,"CLASSIFICATION_TYPE":"U","NORAD_CAT_ID":65737,"ELEMENT_SET_NO":999,"REV_AT_EPOCH":2658,"BSTAR":0.0007909455,"MEAN_MOTION_DOT":0.00023147,"MEAN_MOTION_DDOT":0}]
